SL-16 R/B               
1 25400U 98043G   25357.60372720  .00000043  00000+0  37051-4 0  9990
2 25400  98.8143 305.4834 0008956 231.6099 128.4277 14.26027780428148
SL-16 R/B               
1 25407U 98045B   25357.71296369  .00000293  00000+0  17196-3 0  9999
2 25407  71.0118 341.3496 0006310 158.3994 201.7397 14.16177112416345
ISS (ZARYA)             
1 25544U 98067A   25357.50408698  .00011486  00000+0  21071-3 0  9995
2 25544  51.6323  89.1709 0003169 291.0240  69.0409 15.49754932544520
CZ-4B R/B               
1 25732U 99025C   25357.11270763  .00000067  00000+0  52988-4 0  9991
2 25732  98.6754  38.1601 0036739 203.6694 180.4969 14.18246175377314
OKEAN-O                 
1 25860U 99039A   25357.60571154  .00000715  00000+0  10105-3 0  9994
2 25860  97.9587  53.2127 0001069 113.5715 246.5610 14.80179458423131
SL-16 R/B               
1 25861U 99039B   25357.79297933  .00000569  00000+0  79171-4 0  9991
2 25861  98.0110  51.9442 0015717 139.9532 220.2842 14.81601501425627
DELTA 2 R/B             
1 25876U 99041E   25357.12254084  .00000855  00000+0  17743-3 0  9991
2 25876  51.7605 246.9983 0504482 122.3661 242.7134 14.11427084352217
HELIOS 1B               
1 25977U 99064A   25357.70230313  .00001700  00000+0  19478-3 0  9998
2 25977  98.1755 252.6931 0001067  31.3686 328.7593 14.87322771673966
TERRA                   
1 25994U 99068A   25357.77576969  .00000450  00000+0  10097-3 0  9997
2 25994  97.9732  49.0544 0003456  72.4673  64.9226 14.60913659383996
SL-16 R/B               
1 26070U 00006B   25357.00210455  .00000023  00000+0  36059-4 0  9991
2 26070  71.0015 259.0802 0018578 294.6990  65.2199 14.15808443337705
TITAN 4B R/B            
1 26474U 00047B   25357.74727962  .00003385  00000+0  21935-3 0  9991
2 26474  67.9892 253.9396 0038142 131.1770 229.2679 15.08855829381450
ENVISAT                 
1 27386U 02009A   25352.94754304  .00000081  00000+0  39999-4 0  9991
2 27386  98.3609 303.5309 0001126  84.8976 298.2993 14.39001403247569
